{
    "links": {
        "self": "http://www.neowsapp.com/rest/v1/neo/3785756?api_key=iIulBulltgU6a56xZRHN4H3l9WmuAYTsLGpBGhQ2"
    },
    "id": "3785756",
    "neo_reference_id": "3785756",
    "name": "(2017 TV3)",
    "designation": "2017 TV3",
    "nasa_jpl_url": "http://ssd.jpl.nasa.gov/sbdb.cgi?sstr=3785756",
    "absolute_magnitude_h": 26.1,
    "estimated_diameter": {
        "kilometers": {
            "estimated_diameter_min": 0.0160160338,
            "estimated_diameter_max": 0.0358129403
        },
        "meters": {
            "estimated_diameter_min": 16.0160337979,
            "estimated_diameter_max": 35.8129403019
        },
        "miles": {
            "estimated_diameter_min": 0.0099518989,
            "estimated_diameter_max": 0.0222531225
        },
        "feet": {
            "estimated_diameter_min": 52.5460443254,
            "estimated_diameter_max": 117.4965270602
        }
    },
    "is_potentially_hazardous_asteroid": false,
    "close_approach_data": [
        {
            "close_approach_date": "2017-10-08",
            "close_approach_date_full": "2017-Oct-08 16:26",
            "epoch_date_close_approach": 1507479960000,
            "relative_velocity": {
                "kilometers_per_second": "6.9970174787",
                "kilometers_per_hour": "25189.262923297",
                "miles_per_hour": "15651.6283980897"
            },
            "miss_distance": {
                "astronomical": "0.0173474148",
                "lunar": "6.7481443572",
                "kilometers": "2595136.304086476",
                "miles": "1612542.9247503288"
            },
            "orbiting_body": "Earth"
        },
        {
            "close_approach_date": "2028-11-06",
            "close_approach_date_full": "2028-Nov-06 16:10",
            "epoch_date_close_approach": 1857139800000,
            "relative_velocity": {
                "kilometers_per_second": "15.9017335256",
                "kilometers_per_hour": "57246.2406919843",
                "miles_per_hour": "35570.5877233055"
            },
            "miss_distance": {
                "astronomical": "0.333266465",
                "lunar": "129.640654885",
                "kilometers": "49855953.30642955",
                "miles": "30979052.86684579"
            },
            "orbiting_body": "Earth"
        }
    ],
    "orbital_data": {
        "orbit_id": "2",
        "orbit_determination_date": "2017-10-22 06:21:32",
        "first_observation_date": "2017-10-11",
        "last_observation_date": "2017-10-21",
        "data_arc_in_days": 10,
        "observations_used": 61,
        "orbit_uncertainty": "7",
        "minimum_orbit_intersection": ".0176174",
        "jupiter_tisserand_invariant": "4.466",
        "epoch_osculation": "2459000.5",
        "eccentricity": ".3369471966053127",
        "semi_major_axis": "1.502737253827404",
        "inclination": "7.63483934830178",
        "ascending_node_longitude": "19.13022547669951",
        "orbital_period": "672.8573585683449",
        "perihelion_distance": ".9963941489158942",
        "perihelion_argument": "334.864426573762",
        "aphelion_distance": "2.009080358738915",
        "perihelion_time": "2458689.407273771261",
        "mean_anomaly": "166.4444625836258",
        "mean_motion": ".5350316756080082",
        "equinox": "J2000",
        "orbit_class": {
            "orbit_class_type": "APO",
            "orbit_class_description": "Near-Earth asteroid orbits which cross the Earth’s orbit similar to that of 1862 Apollo",
            "orbit_class_range": "a (semi-major axis) > 1.0 AU; q (perihelion) < 1.017 AU"
        }
    },
    "is_sentry_object": false
}